[{"OBJECT_NAME":"YAOGAN-43 01D","OBJECT_ID":"2024-148D","EPOCH":"2026-03-09T10:27:16.254720","MEAN_MOTION":15.28369377,"ECCENTRICITY":0.00025569,"INCLINATION":35.001,"RA_OF_ASC_NODE":61.7102,"ARG_OF_PERICENTER":326.2473,"MEAN_ANOMALY":33.808,"EPHEMERIS_TYPE":0,"CLASSIFICATION_TYPE":"U","NORAD_CAT_ID":60461,"ELEMENT_SET_NO":999,"REV_AT_EPOCH":8700,"BSTAR":0.00037765912,"MEAN_MOTION_DOT":0.00010676,"MEAN_MOTION_DDOT":0},{"OBJECT_NAME":"STARLINK-34616","OBJECT_ID":"2025-253B","EPOCH":"2026-03-09T17:17:06.390240","MEAN_MOTION":15.27592386,"ECCENTRICITY":0.00011733,"INCLINATION":43.0023,"RA_OF_ASC_NODE":211.9475,"ARG_OF_PERICENTER":258.2993,"MEAN_ANOMALY":101.7727,"EPHEMERIS_TYPE":0,"CLASSIFICATION_TYPE":"U","NORAD_CAT_ID":66320,"ELEMENT_SET_NO":999,"REV_AT_EPOCH":2033,"BSTAR":0.0014923144,"MEAN_MOTION_DOT":0.00041047,"MEAN_MOTION_DDOT":0}]
